GOES 19                 
1 60133U 24119A   25112.20461485 -.00000245  00000+0  00000+0 0  9991
2 60133   0.0183 102.6976 0000485 299.5299 166.7718  1.00268062  3082
