[
  {
    "OBJECT_NAME": "GOES 19",
    "OBJECT_ID": "2024-119A",
    "EPOCH": "2025-04-22T04:54:38.723040",
    "MEAN_MOTION": 1.00268062,
    "ECCENTRICITY": 0.0000485,
    "INCLINATION": 0.0183,
    "RA_OF_ASC_NODE": 102.6976,
    "ARG_OF_PERICENTER": 299.5299,
    "MEAN_ANOMALY": 166.7718,
    "EPHEMERIS_TYPE": 0,
    "CLASSIFICATION_TYPE": "U",
    "NORAD_CAT_ID": 60133,
    "ELEMENT_SET_NO": 999,
    "REV_AT_EPOCH": 308,
    "BSTAR": 0,
    "MEAN_MOTION_DOT": -0.00000245,
    "MEAN_MOTION_DDOT": 0
  }
]